{
    "CCSDS_OMM_VERS": "3.0",
    "COMMENT": "GENERATED VIA SPACE-TRACK.ORG API",
    "CREATION_DATE": "2025-05-22T17:14:14",
    "ORIGINATOR": "18 SPCS",
    "OBJECT_NAME": "GALILEO 18 (26E)",
    "OBJECT_ID": "2016-069D",
    "CENTER_NAME": "EARTH",
    "REF_FRAME": "TEME",
    "TIME_SYSTEM": "UTC",
    "MEAN_ELEMENT_THEORY": "SGP4",
    "EPOCH": "2025-05-21T20:40:32.572704",
    "MEAN_MOTION": "1.70474158",
    "ECCENTRICITY": "0.00047770",
    "INCLINATION": "55.2627",
    "RA_OF_ASC_NODE": "111.9221",
    "ARG_OF_PERICENTER": "300.5222",
    "MEAN_ANOMALY": "59.4060",
    "EPHEMERIS_TYPE": "0",
    "CLASSIFICATION_TYPE": "U",
    "NORAD_CAT_ID": "41862",
    "ELEMENT_SET_NO": "999",
    "REV_AT_EPOCH": "5297",
    "BSTAR": "0.00000000000000",
    "MEAN_MOTION_DOT": "0.00000061",
    "MEAN_MOTION_DDOT": "0.0000000000000",
    "SEMIMAJOR_AXIS": "29600.302",
    "PERIOD": "844.703",
    "APOAPSIS": "23236.307",
    "PERIAPSIS": "23208.027",
    "OBJECT_TYPE": "PAYLOAD",
    "RCS_SIZE": "LARGE",
    "COUNTRY_CODE": "ESA",
    "LAUNCH_DATE": "2016-11-17",
    "SITE": "FRGUI",
    "DECAY_DATE": null,
    "FILE": "4736220",
    "GP_ID": "288144043",
    "TLE_LINE0": "0 GALILEO 18 (26E)",
    "TLE_LINE1": "1 41862U 16069D   25141.86148811  .00000061  00000-0  00000-0 0  9990",
    "TLE_LINE2": "2 41862  55.2627 111.9221 0004777 300.5222  59.4060  1.70474158 52970"
}